STARLINK-1143
1 45179U 20012B   26090.91671296  .00134691  00000+0  11444-2 0  9998
2 45179  53.0439 220.7258 0004078 220.4177 182.7162 15.68710245  5865
STARLINK-1665
1 46356U 20062AH  26090.83335647  .00146287  00000+0  12391-2 0  9995
2 46356  53.0402 227.9659 0006890 344.3980 292.2888 15.68725449  5986
